OBJECT_NAME,OBJECT_ID,EPOCH,MEAN_MOTION,ECCENTRICITY,INCLINATION,RA_OF_ASC_NODE,ARG_OF_PERICENTER,MEAN_ANOMALY,EPHEMERIS_TYPE,CLASSIFICATION_TYPE,NORAD_CAT_ID,ELEMENT_SET_NO,REV_AT_EPOCH,BSTAR,MEAN_MOTION_DOT,MEAN_MOTION_DDOT
STARLINK-37987,2026-150L,2026-07-16T14:00:01.999872,15.75270002,.00014391,97.2840,36.0116,87.7704,122.1314,0,U,69749,999,352,-.11284039E-2,-.165793E-2,0
STARLINK-38037,2026-150M,2026-07-16T12:40:50.217600,15.80915172,.00016984,97.2823,35.9956,107.9131,252.2323,0,U,69750,999,353,.12102281E-2,.239225E-2,0
STARLINK-38049,2026-150N,2026-07-16T12:39:22.156128,15.80879851,.00011417,97.2840,35.9982,114.7185,245.4202,0,U,69751,999,353,.10178134E-2,.199931E-2,0
STARLINK-38029,2026-150P,2026-07-16T14:00:01.999872,15.75277764,.00009921,97.2841,36.0526,89.8831,214.0076,0,U,69752,999,352,-.1189361E-2,-.174611E-2,0
STARLINK-37965,2026-150Q,2026-07-16T14:00:01.999872,15.75258275,.00014893,97.2845,36.0361,90.4370,175.4614,0,U,69753,999,352,-.96915614E-3,-.142724E-2,0
STARLINK-38048,2026-150R,2026-07-16T12:30:33.311232,15.80946674,.00009225,97.2830,36.0066,127.9719,232.1633,0,U,69754,999,353,.16624308E-2,.332728E-2,0
STARLINK-38006,2026-150S,2026-07-16T14:00:01.999872,15.75289716,.00006782,97.2838,36.0590,96.8585,221.0286,0,U,69755,999,352,-.13145011E-2,-.192658E-2,0
STARLINK-38036,2026-150T,2026-07-16T14:00:01.999872,15.75251663,.00009428,97.2841,36.0753,82.1034,273.7942,0,U,69756,999,352,-.95422426E-3,-.140512E-2,0
STARLINK-38058,2026-150U,2026-07-16T12:24:17.922240,15.80782261,.00009633,97.2792,36.0145,44.0115,316.1230,0,U,69757,999,353,-.99101671E-4,-.19053E-3,0
STARLINK-38066,2026-150V,2026-07-16T12:24:04.712544,15.80944595,.00011054,97.2826,36.0135,123.4437,236.6937,0,U,69758,999,353,.16596803E-2,.332119E-2,0
STARLINK-38035,2026-150W,2026-07-16T12:23:54.050784,15.80943955,.0001208,97.2826,36.0135,127.8766,232.2612,0,U,69759,999,353,.1643923E-2,.328828E-2,0
STARLINK-38056,2026-150X,2026-07-16T12:18:55.343520,15.80934261,.00012616,97.2830,36.0188,120.3453,239.7940,0,U,69760,999,353,.16504367E-2,.330031E-2,0
STARLINK-38069,2026-150Y,2026-07-16T12:13:56.515296,15.80918590,.00015863,97.2831,36.0229,115.6354,244.5079,0,U,69761,999,353,.13454574E-2,.266864E-2,0
STARLINK-38019,2026-150Z,2026-07-16T14:00:01.999872,15.75282721,.00007678,97.2834,36.0610,70.6765,251.2079,0,U,69762,999,352,-.12195848E-2,-.178988E-2,0
KUIPER-00258,2026-151A,2026-07-16T10:31:43.941792,15.35045911,.00124114,51.8672,174.5626,167.6330,192.4963,0,U,69763,999,220,-.46363493E-2,-.157619E-2,0
KUIPER-00526,2026-151B,2026-07-16T13:15:09.702432,15.37335723,.0005902,51.8759,173.8315,143.0635,217.0760,0,U,69764,999,222,.32312712E-3,.11639E-3,0
KUIPER-00558,2026-151C,2026-07-16T13:22:48.881280,15.35186651,.0007418,51.8752,173.8660,157.2281,202.9035,0,U,69765,999,222,-.5108462E-2,-.173721E-2,0
KUIPER-00569,2026-151D,2026-07-16T10:05:34.339776,15.37675352,.00035661,51.8774,174.4478,139.8001,220.3251,0,U,69766,999,220,.38488282E-2,.147069E-2,0
KUIPER-00589,2026-151E,2026-07-16T11:40:20.353152,15.37366483,.00054013,51.8750,174.1407,146.7112,213.4215,0,U,69767,999,221,.8612631E-4,.2813E-4,0
KUIPER-00598,2026-151F,2026-07-16T07:24:25.215552,15.33661092,.00172237,51.8664,175.1913,146.2210,213.9876,0,U,69768,999,218,-.23329978E-1,-.71687E-2,0
KUIPER-00604,2026-151G,2026-07-16T11:29:19.778496,15.38250655,.00027034,51.8797,174.0877,110.2726,249.8552,0,U,69769,999,221,.2400641E-3,.8806E-4,0
KUIPER-00609,2026-151H,2026-07-16T12:57:19.937376,15.38657691,.0001077,51.8804,173.7473,58.6162,301.4931,0,U,69770,999,222,.32476518E-3,.12223E-3,0
KUIPER-00611,2026-151J,2026-07-16T13:00:02.524896,15.38468737,.00016121,51.8804,173.7561,107.3381,252.7783,0,U,69771,999,222,.3467288E-3,.12996E-3,0
KUIPER-00612,2026-151K,2026-07-16T13:06:50.587776,15.37960292,.00036192,51.8792,173.7927,119.5701,240.5647,0,U,69772,999,222,.33277123E-3,.12247E-3,0
KUIPER-00614,2026-151L,2026-07-16T13:04:01.733664,15.38167261,.00026795,51.8804,173.7764,126.8385,233.2848,0,U,69773,999,222,.31609636E-3,.11692E-3,0
KUIPER-00615,2026-151M,2026-07-16T10:09:08.108928,15.37238610,.00061277,51.8770,174.4652,152.0623,208.0693,0,U,69774,999,220,.22800529E-3,.8067E-4,0
KUIPER-00616,2026-151N,2026-07-16T13:01:46.399296,15.38413416,.00030894,51.8784,173.7711,126.8965,233.2306,0,U,69775,999,222,.34353623E-3,.12849E-3,0
KUIPER-00617,2026-151P,2026-07-16T11:35:01.552704,15.37799024,.00040337,51.8795,174.1139,140.8794,219.2485,0,U,69776,999,221,.30667327E-3,.11194E-3,0
KUIPER-00619,2026-151Q,2026-07-16T12:58:38.754912,15.38561412,.00017984,51.8801,173.7524,67.9903,292.1275,0,U,69777,999,222,.33088413E-3,.12421E-3,0
KUIPER-00621,2026-151R,2026-07-16T13:01:39.611712,15.38351143,.00019955,51.8794,173.7695,116.2910,243.8283,0,U,69778,999,222,.33014799E-3,.12306E-3,0
